GLOBALSTAR M024         
1 25883U 99043A   25024.24194083 -.00000061  00000+0  12389-3 0  9998
2 25883  52.0060 345.4139 0001142 216.8400 281.3856 11.10166557 98877
GLOBALSTAR M027         
1 25884U 99043B   25024.40023614 -.00000080  00000+0 -62382-3 0  9998
2 25884  52.0224  58.9630 0021729 120.0032 240.2920 11.04370681125350
GLOBALSTAR M054         
1 25885U 99043C   25024.95378161 -.00000038  00000+0  84489-3 0  9993
2 25885  52.0103 209.0683 0004635 297.9809 217.8521 11.39216083102723
GLOBALSTAR M053         
1 25886U 99043D   25024.66111979 -.00000072  00000+0 -90476-4 0  9997
2 25886  51.9968 148.8990 0003774 179.7955 285.5556 11.27662606103256
GLOBALSTAR M058         
1 25907U 99049A   25024.72615584  .00000028  00000+0  15166-2 0  9995
2 25907  51.9934 132.2526 0001619  32.1451 327.9482 11.93194578524419
GLOBALSTAR M050         
1 25908U 99049B   25024.68281177 -.00000050  00000+0  42844-3 0  9998
2 25908  51.9977 150.7643 0010162 106.7032   1.3690 12.07448491130855
GLOBALSTAR M033         
1 25909U 99049C   25024.43483034 -.00000165  00000+0 -71019-3 0  9992
2 25909  51.9936  33.2057 0012878 327.5425  32.4629 12.20291584518198
GLOBALSTAR M055         
1 25910U 99049D   25024.43593214 -.00000060  00000+0  29210-3 0  9995
2 25910  52.0031  50.9494 0007223 191.1944 168.8747 12.29419554150609
